HALOSAT                 
1 43549U 98067NX  20163.61394424  .00028585  00000-0  20626-3 0  9997
2 43549  51.6364 320.5258 0002831  75.0746 285.0566 15.73287542108892
ENDUROSAT ONE           
1 43551U 98067NZ  20163.80396853  .00048830  00000-0  24539-3 0  9991
2 43551  51.6337 308.1630 0001560  55.4118 304.7031 15.81198518109489
EQUISAT                 
1 43552U 98067PA  20163.83318486  .00025941  00000-0  18064-3 0  9995
2 43552  51.6356 317.5253 0003335  75.5236 284.6133 15.74177570109321
AEROCUBE 12A            
1 43556U 18046C   20163.49204509  .00000552  00000-0  31206-4 0  9995
2 43556  51.6413 134.2015 0007719 275.9803  84.0298 15.29795414106464
AEROCUBE 12B            
1 43557U 18046D   20164.07446876  .00000592  00000-0  32809-4 0  9990
2 43557  51.6414 132.0780 0007739 277.4983  82.5118 15.29512689106497
UITMSAT-1               
1 43589U 98067PD  20163.61313862  .00036303  00000-0  22216-3 0  9992
2 43589  51.6360 316.6169 0002514  98.9987 261.1298 15.76962412105059
MAYA-1                  
1 43590U 98067PE  20163.60594803  .00036144  00000-0  22132-3 0  9999
2 43590  51.6305 316.5661 0002229  92.7044 267.4211 15.76951915104986
BHUTAN-1                
1 43591U 98067PF  20163.45230282  .00036420  00000-0  22149-3 0  9996
2 43591  51.6371 317.1172 0002605 100.7460 259.3834 15.77101892104965
SIRIUSSAT-1             
1 43595U 98067PG  20163.81409125  .00028170  00000-0  19277-3 0  9995
2 43595  51.6313 320.2448 0001149  34.9495 325.1579 15.74537056104133
SIRIUSSAT-2             
1 43596U 98067PH  20163.81201333  .00029311  00000-0  20138-3 0  9993
2 43596  51.6330 321.0565 0001556  33.8638 326.2460 15.74421347104126
TANUSHA-3               
1 43597U 98067PJ  20163.81234236  .00077000  00000-0  31361-3 0  9990
2 43597  51.6286 308.0377 0002036 313.8298  46.2538 15.85476237104293
SURFSAT                 
1 43614U 18070B   20164.00931203  .00002524  00000-0  65016-4 0  9990
2 43614  93.0200 152.3372 0015476   9.7097 350.4454 15.39173940 97645
CP7 (DAVE)              
1 43615U 18070C   20163.71512040  .00002471  00000-0  63958-4 0  9996
2 43615  93.0202 152.2063 0015653  10.2987 349.8585 15.39027805 97595
ELFIN-B                 
1 43616U 18070D   20164.02045568  .00003657  00000-0  90461-4 0  9994
2 43616  93.0165 152.2732 0016066  10.7576 349.4019 15.40373195 97681
ELFIN-A                 
1 43617U 18070E   20163.72965458  .00004016  00000-0  98797-4 0  9990
2 43617  93.0217 152.6600 0015316   9.1981 350.9551 15.40551085 97647
CUBEBEL-1 (BSUSAT-1)    
1 43666U 18083E   20164.09555262  .00000780  00000-0  41344-4 0  9997
2 43666  97.4889 190.6144 0015625  25.0080  60.8951 15.18254219 89803
DEBRISSAT-2             
1 43680U 98067PR  20151.69072398  .11468650  12477-4  51439-3 0  9995
2 43680  51.6154 356.6377 0010832 273.4515  86.5274 16.42437352111263
CICERO 10               
1 43690U 18088A   20164.02961722  .00000728  00000-0  31674-4 0  9991
2 43690  85.0388  81.8967 0013979 338.9680  21.0984 15.20228893 87910
IRVINE01                
1 43693U 18088D   20163.77524129  .00002428  00000-0  10168-3 0  9994
2 43693  85.0358  80.7725 0016231 319.2602  40.7426 15.22864265 87987
PROXIMA I               
1 43694U 18088E   20163.76502636  .00000877  00000-0  36566-4 0  9990
2 43694  85.0331  80.6171 0017363 309.4058  50.5646 15.21968994 87982
PROXIMA II              
1 43696U 18088G   20163.76325574  .00000857  00000-0  35685-4 0  9995
2 43696  85.0333  80.6219 0017402 309.3176  50.6522 15.21971082 87978
FACSAT-1                
1 43721U 18096C   20164.10050365  .00001356  00000-0  53412-4 0  9998
2 43721  97.4206 237.7034 0018778 137.8620 222.4066 15.27215050 85576
CENTAURI-2              
1 43722U 18096D   20163.73510897  .00001775  00000-0  67964-4 0  9990
2 43722  97.4217 237.6097 0018781 138.8880 221.3778 15.27739030 85522
INNOSAT-2               
1 43738U 18096V   20164.09819658  .00002539  00000-0  88490-4 0  9990
2 43738  97.4232 239.9182 0024498 145.3114 214.9730 15.30314195 85713
SIRION PATHFINDER-2     
1 43759U 18099B   20164.02395679  .00000441  00000-0  45213-4 0  9997
2 43759  97.7055 235.7766 0013807 194.9992 165.0821 14.95278675 83122
CORVUS-BC 4             
1 43767U 18099K   20163.82923727  .00000140  00000-0  18103-4 0  9998
2 43767  97.7036 235.0023 0011201 198.8105 161.2703 14.94724854 83068
MOVE-II                 
1 43780U 18099Y   20163.76990362  .00000165  00000-0  20140-4 0  9996
2 43780  97.7062 235.4560 0012779 207.6166 152.4377 14.95399816 83065
SPACEBEE-7              
1 43816U 18099BL  20163.91105095 -.00000106  00000-0 -43255-5 0  9994
2 43816  97.7074 235.9830 0013077 191.1419 168.9514 14.95692669 82665
SPACEBEE-5              
1 43817U 18099BM  20163.73297076  .00000903  00000-0  84966-4 0  9992
2 43817  97.7121 236.2444 0013122 191.4017 168.6909 14.96297127 82657
SPACEBEE-6              
1 43818U 18099BN  20163.74143190  .00000838  00000-0  79983-4 0  9991
2 43818  97.7087 235.9520 0013218 190.9083 169.1853 14.95880304 82796
SHIELDS 1               
1 43850U 18104B   20163.74317704  .00000471  00000-0  19094-4 0  9998
2 43850  85.0291 179.1303 0017325  91.2068 269.1159 15.21384916 82604
STF-1                   
1 43852U 18104D   20163.75583021  .00001019  00000-0  43623-4 0  9992
2 43852  85.0333 179.6591 0017010 103.5896 256.7242 15.21275949 82581
ZACUBE-2                
1 43907U 18111AH  20164.07042540  .00000361  00000-0  17378-4 0  9990
2 43907  97.2662  63.9970 0022046 158.3279 201.8897 15.24586059 81199
LUME 1                  
1 43908U 18111AJ  20163.73370377  .00000850  00000-0  36645-4 0  9996
2 43908  97.2663  63.8372 0021743 158.9987 201.2149 15.25030974 81152
AOBA VELOX-IV           
1 43940U 19003J   20163.86678693  .00001582  00000-0  65832-4 0  9992
2 43940  97.2280 215.3375 0022229 240.9266 118.9746 15.24998409 77799
CATSAT-2                
1 44029U 98067PV  20163.75945057  .00016802  00000-0  17195-3 0  9996
2 44029  51.6390 344.9067 0003943  72.7435 287.3992 15.65130738 77637
DELPHINI                
1 44030U 98067PW  20163.97180606  .00018469  00000-0  18124-3 0  9997
2 44030  51.6351 342.4635 0003470  72.8557 287.2819 15.66112885 77654
UNITE                   
1 44031U 98067PX  20163.73982896  .00009222  00000-0  11258-3 0  9991
2 44031  51.6386 350.7376 0003188  64.9582 295.1742 15.61249663 77522
CATSAT-1                
1 44033U 98067PZ  20163.75937089  .00017124  00000-0  17509-3 0  9994
2 44033  51.6392 344.9124 0003847  71.3990 288.7423 15.65137559 77544
RAAVANA-1               
1 44329U 98067QE  20163.80457287  .00009195  00000-0  12758-3 0  9995
2 44329  51.6404   2.4726 0005227 347.5553  12.5310 15.57826455 56127
UGUISU                  
1 44330U 98067QF  20163.75259140  .00009475  00000-0  13166-3 0  9994
2 44330  51.6393   2.8707 0005239 345.7618  14.3225 15.57743120 56092
NEPALISAT-1             
1 44331U 98067QG  20163.73293444  .00009108  00000-0  12633-3 0  9999
2 44331  51.6391   2.7420 0005294 349.0409  11.0467 15.57848899 56101
SPOOQY-1                
1 44332U 98067QH  20163.80019076  .00008804  00000-0  12276-3 0  9990
2 44332  51.6395   2.4385 0004300 353.9812   6.1128 15.57758471 56073
SPACEBEE-9              
1 44370U 19037F   20163.64863056  .00006529  00000-0  15056-3 0  9990
2 44370  45.0058 148.2066 0011800 153.6327 206.5164 15.43375850 53706
SPACEBEE-8              
1 44371U 19037G   20163.99474649  .00013262  00000-0  25843-3 0  9992
2 44371  45.0062 140.6685 0009771 155.8970 204.2379 15.47525731 53800
IOD-1 GEMS              
1 44385U 98067QK  20163.73202587  .00014434  00000-0  18073-3 0  9998
2 44385  51.6410   1.2841 0001571 302.2912  57.7929 15.60046808 53603
MOVE-IIB                
1 44398U 19038N   20163.86222706  .00000837  00000-0  51772-4 0  9998
2 44398  97.5357 125.1644 0026083 143.4891 216.8124 15.12312003 51736
SONATE                  
1 44400U 19038Q   20163.96149710  .00000416  00000-0  27906-4 0  9991
2 44400  97.5393 125.2784 0026172 142.0260 218.2822 15.11950565 51742
LUCKY-7                 
1 44406U 19038W   20164.11048228  .00000534  00000-0  34516-4 0  9993
2 44406  97.5388 125.5275 0025654 141.0588 219.2496 15.12214863 51761
BEESAT 9                
1 44412U 19038AC  20163.84472097  .00000699  00000-0  43906-4 0  9999
2 44412  97.5380 125.2461 0023555 147.1611 213.1089 15.12291684 51426
JAISAT-1                
1 44419U 19038F   20164.13138325  .00000621  00000-0  38980-4 0  9993
2 44419  97.5382 125.7894 0022451 145.2642 215.0059 15.12775531 51793
SWIATOWID               
1 44426U 98067QL  20164.03037547  .00018144  00000-0  21813-3 0  9998
2 44426  51.6424 359.2205 0001588 296.3769 198.9134 15.60918225 53668
KRAKSAT                 
1 44427U 98067QM  20164.02562744  .00006669  00000-0  10120-3 0  9998
2 44427  51.6445   4.4583 0002325 296.3794 195.0179 15.55911324 53639
VCC A                   
1 44428U 98067QN  20163.79491776  .00008430  00000-0  12029-3 0  9996
2 44428  51.6418   3.9502 0001797 322.7848  37.3019 15.57197397 53629
ENTRYSAT                
1 44429U 98067QP  20163.76804216  .00010595  00000-0  14419-3 0  9991
2 44429  51.6397   2.9954 0001492 309.3953  50.6907 15.58162075 53637
VCC C                   
1 44430U 98067QQ  20164.00154012  .00012523  00000-0  16206-3 0  9992
2 44430  51.6395   0.8149 0001355 332.1297  27.9623 15.59315319 52502
VCC B                   
1 44431U 98067QR  20163.79476974  .00008641  00000-0  12296-3 0  9993
2 44431  51.6405   3.9359 0001958 321.5508  38.5344 15.57235639 53567
ATL-1                   
1 44830U 19084G   20163.87702456  .00051995  00000-0  29985-3 0  9997
2 44830  96.9748  32.9826 0024242 254.5470 105.3120 15.78098219 29570
SMOG-P                  
1 44832U 19084J   20163.75168387  .00055091  00000-0  30043-3 0  9993
2 44832  96.9754  33.0153 0023010 252.8790 106.9959 15.79371563 29565
